1 41990U 17008AU  21191.45749439  .00001619  00000-0  63392-4 0  9992
2 41990  97.3222 258.5882 0007378  19.3121 340.8396 15.27214032244099
1 41990U 17008AU  21191.91614032  .00001515  00000-0  59505-4 0  9999
2 41990  97.3221 259.0384 0007319  17.7660 342.3833 15.27215057244165
1 41990U 17008AU  21192.44030643  .00001334  00000-0  52703-4 0  9990
2 41990  97.3221 259.5528 0007262  15.9851 344.1616 15.27215922244248
1 41990U 17008AU  21192.70238946  .00001480  00000-0  58160-4 0  9990
2 41990  97.3221 259.8101 0007233  15.1037 345.0417 15.27217519244281
1 41990U 17008AU  21193.16103419  .00001469  00000-0  57748-4 0  9995
2 41990  97.3220 260.2602 0007191  13.5083 346.6348 15.27218978244356
1 41990U 17008AU  21193.42311647  .00001512  00000-0  59376-4 0  9996
2 41990  97.3220 260.5174 0007164  12.6268 347.5149 15.27220100244391
1 41990U 17008AU  21193.75071945  .00001481  00000-0  58223-4 0  9991
2 41990  97.3220 260.8389 0007133  11.5182 348.6219 15.27220979244441
1 41990U 17008AU  21194.14384210  .00001549  00000-0  60746-4 0  9995
2 41990  97.3219 261.2248 0007089  10.1753 349.9629 15.27222750244502
1 41990U 17008AU  21194.73352691  .00001430  00000-0  56289-4 0  9994
2 41990  97.3219 261.8035 0007021   8.1829 351.9523 15.27223754244599
1 41990U 17008AU  21195.12664929  .00001421  00000-0  55946-4 0  9997
2 41990  97.3218 262.1893 0006966   6.7931 353.3402 15.27224913244656
1 41990U 17008AU  21195.71633339  .00001225  00000-0  48597-4 0  9999
2 41990  97.3218 262.7680 0006897   4.7311 355.3992 15.27225368244740
1 41990U 17008AU  21196.10945459  .00001376  00000-0  54271-4 0  9995
2 41990  97.3217 263.1538 0006860   3.3009 356.8274 15.27227526244809
1 41990U 17008AU  21196.76465742  .00001289  00000-0  51003-4 0  9992
2 41990  97.3217 263.7968 0006788   1.0317 359.0935 15.27228858244907
1 41990U 17008AU  21197.74746008  .00001218  00000-0  48346-4 0  9996
2 41990  97.3217 264.7614 0006682 357.5307   2.5898 15.27231149245059
1 41990U 17008AU  21198.40266027  .00001344  00000-0  53056-4 0  9992
2 41990  97.3216 265.4044 0006614 355.1150   5.0024 15.27233763245152
1 41990U 17008AU  21198.73026044  .00001306  00000-0  51625-4 0  9999
2 41990  97.3216 265.7260 0006590 353.7560   6.3596 15.27234434245207
1 41990U 17008AU  21199.18890018  .00001339  00000-0  52866-4 0  9993
2 41990  97.3216 266.1761 0006537 351.9886   8.1248 15.27235864245279
1 41990U 17008AU  21199.77857938  .00001296  00000-0  51272-4 0  9994
2 41990  97.3215 266.7548 0006458 349.7753  10.3354 15.27237257245368
1 41990U 17008AU  21200.43377741  .00001322  00000-0  52209-4 0  9990
2 41990  97.3215 267.3979 0006372 347.1868  12.9209 15.27239287245460
1 41990U 17008AU  21201.41657304  .00001441  00000-0  56691-4 0  9996
2 41990  97.3216 268.3623 0006251 343.3621  16.7412 15.27242751245614
1 41990U 17008AU  21201.67865158  .00001450  00000-0  57009-4 0  9996
2 41990  97.3216 268.6196 0006237 342.3233  17.7788 15.27243566245650
1 41990U 17008AU  21202.46488576  .00001641  00000-0  64150-4 0  9996
2 41990  97.3215 269.3912 0006158 339.1737  20.9250 15.27247049245771
1 41990U 17008AU  21202.72696384  .00001586  00000-0  62095-4 0  9997
2 41990  97.3215 269.6484 0006127 338.0177  22.0799 15.27247509245817
1 41990U 17008AU  21202.92352200  .00001643  00000-0  64238-4 0  9990
2 41990  97.3215 269.8413 0006099 337.2133  22.8834 15.27248445245843
1 41990U 17008AU  21203.44767719  .00001812  00000-0  70548-4 0  9992
2 41990  97.3215 270.3557 0006043 335.0538  25.0409 15.27250946245924
1 41990U 17008AU  21203.77527259  .00002131  00000-0  82491-4 0  9996
2 41990  97.3215 270.6772 0006023 333.7298  26.3635 15.27254104245972
1 41990U 17008AU  21204.16838741  .00002175  00000-0  84159-4 0  9992
2 41990  97.3215 271.0630 0005990 332.0802  28.0115 15.27255896246034
1 41990U 17008AU  21204.75806026  .00002169  00000-0  83910-4 0  9995
2 41990  97.3215 271.6417 0005933 329.6995  30.3900 15.27257741246124
1 41990U 17008AU  21205.08565484  .00002270  00000-0  87713-4 0  9990
2 41990  97.3214 271.9632 0005904 328.3363  31.7520 15.27259724246179
1 41990U 17008AU  21205.41325026  .00002155  00000-0  83393-4 0  9995
2 41990  97.3214 272.2847 0005876 326.9612  33.1259 15.27260173246221
1 41990U 17008AU  21206.13395774  .00002125  00000-0  82277-4 0  9999
2 41990  97.3213 272.9920 0005827 323.8998  36.1847 15.27262968246330
1 41990U 17008AU  21206.46155220  .00002032  00000-0  78779-4 0  9994
2 41990  97.3212 273.3136 0005747 322.5202  37.5635 15.27263828246389
1 41990U 17008AU  21206.65810825  .00002093  00000-0  81042-4 0  9998
2 41990  97.3212 273.5065 0005729 321.6800  38.4031 15.27264982246412
1 41990U 17008AU  21207.44433167  .00002047  00000-0  79331-4 0  9993
2 41990  97.3210 274.2782 0005667 318.2296  41.8510 15.27268229246537
1 41990U 17008AU  21208.42710929  .00001974  00000-0  76579-4 0  9995
2 41990  97.3207 275.2428 0005591 313.7424  46.3352 15.27271873246689
1 41990U 17008AU  21208.62366461  .00001830  00000-0  71181-4 0  9990
2 41990  97.3207 275.4357 0005586 312.8033  47.2736 15.27272216246714
1 41990U 17008AU  21209.14781131  .00001852  00000-0  72025-4 0  9995
2 41990  97.3206 275.9501 0005561 310.5139  49.5615 15.27274355246799
1 41990U 17008AU  21209.73747526  .00001897  00000-0  73708-4 0  9998
2 41990  97.3210 276.5285 0005555 307.9289  52.1448 15.27276774246880
1 41990U 17008AU  21210.13058432  .00001925  00000-0  74756-4 0  9991
2 41990  97.3209 276.9143 0005535 306.1886  53.8841 15.27278476246940
1 41990U 17008AU  21210.72024685  .00001890  00000-0  73427-4 0  9994
2 41990  97.3208 277.4930 0005502 303.5158  56.5555 15.27280763247031
1 41990U 17008AU  21210.98231874  .00001915  00000-0  74370-4 0  9998
2 41990  97.3208 277.7502 0005493 302.3141  57.7566 15.27281971247078
1 41990U 17008AU  21211.44094438  .00001884  00000-0  73179-4 0  9994
2 41990  97.3207 278.2003 0005465 300.1916  59.8781 15.27283626247143
1 41990U 17008AU  21211.89956940  .00001904  00000-0  73925-4 0  9990
2 41990  97.3207 278.6503 0005441 298.1288  61.9401 15.27285585247211
1 41990U 17008AU  21212.42371178  .00001874  00000-0  72820-4 0  9993
2 41990  97.3207 279.1647 0005423 295.7445  64.3234 15.27287477247295
1 41990U 17008AU  21212.62026492  .00001849  00000-0  71870-4 0  9997
2 41990  97.3207 279.3576 0005418 294.8264  65.2411 15.27288152247323
1 41990U 17008AU  21213.14440653  .00001793  00000-0  69783-4 0  9992
2 41990  97.3206 279.8719 0005400 292.4666  67.6001 15.27289821247401
1 41990U 17008AU  21213.60303035  .00001640  00000-0  64050-4 0  9998
2 41990  97.3206 280.3220 0005382 290.2956  69.7705 15.27290607247477
1 41990U 17008AU  21214.45475847  .00001510  00000-0  59184-4 0  9991
2 41990  97.3206 281.1578 0005368 286.2494  73.8155 15.27292986247600
1 41990U 17008AU  21214.58579353  .00001495  00000-0  58614-4 0  9991
2 41990  97.3206 281.2864 0005361 285.3904  74.6743 15.27293355247623
1 41990U 17008AU  21215.04441529  .00001540  00000-0  60306-4 0  9998
2 41990  97.3205 281.7364 0005355 283.2891  76.7751 15.27295324247694
1 41990U 17008AU  21215.17544914  .00001769  00000-0  68855-4 0  9994
2 41990  97.3206 281.8649 0005354 282.6068  77.4573 15.27297330247712
1 41990U 17008AU  21215.63407112  .00001531  00000-0  59970-4 0  9998
2 41990  97.3208 282.3150 0005345 280.3136  79.7500 15.27297528247789
1 41990U 17008AU  21216.42027838  .00001546  00000-0  60510-4 0  9997
2 41990  97.3208 283.0866 0005331 276.6112  83.4520 15.27300252247905
1 41990U 17008AU  21216.74786403  .00001620  00000-0  63292-4 0  9995
2 41990  97.3207 283.4081 0005335 275.1423  84.9208 15.27301844247952
1 41990U 17008AU  21217.46855266  .00001536  00000-0  60121-4 0  9993
2 41990  97.3207 284.1153 0005336 271.7581  88.3047 15.27303636248061
1 41990U 17008AU  21218.18924044  .00001434  00000-0  56312-4 0  9998
2 41990  97.3206 284.8226 0005352 268.3527  91.7099 15.27305259248178
1 41990U 17008AU  21218.58234210  .00001427  00000-0  56046-4 0  9997
2 41990  97.3206 285.2083 0005355 266.3113  93.7514 15.27306521248230
1 41990U 17008AU  21218.90992668  .00001432  00000-0  56249-4 0  9992
2 41990  97.3205 285.5298 0005361 264.8102  95.2526 15.27307578248286
1 41990U 17008AU  21219.56509315  .00001774  00000-0  69035-4 0  9994
2 41990  97.3204 286.1727 0005377 261.7318  98.3312 15.27312171248384
1 41990U 17008AU  21220.15474252  .00001889  00000-0  73317-4 0  9997
2 41990  97.3202 286.7512 0005402 259.0972 100.9660 15.27315150248471
1 41990U 17008AU  21220.61335923  .00001834  00000-0  71260-4 0  9994
2 41990  97.3202 287.2013 0005415 256.9324 103.1311 15.27316350248543
1 41990U 17008AU  21221.46507373  .00001828  00000-0  71020-4 0  9995
2 41990  97.3201 288.0371 0005446 252.9330 107.1312 15.27319402248675
1 41990U 17008AU  21221.59610680  .00001783  00000-0  69356-4 0  9994
2 41990  97.3201 288.1657 0005455 252.2610 107.8034 15.27319592248697
1 41990U 17008AU  21222.44781976  .00001597  00000-0  62391-4 0  9991
2 41990  97.3199 289.0014 0005498 248.1839 111.8816 15.27321578248829
1 41990U 17008AU  21223.10298275  .00001415  00000-0  55594-4 0  9996
2 41990  97.3198 289.6443 0005531 245.2111 114.8553 15.27322852248927
1 41990U 17008AU  21223.43056375  .00001528  00000-0  59814-4 0  9999
2 41990  97.3198 289.9657 0005546 243.6784 116.3886 15.27324598248971
1 41990U 17008AU  21224.15124177  .00001403  00000-0  55115-4 0  9997
2 41990  97.3197 290.6729 0005586 240.4663 119.6020 15.27326250249080
1 41990U 17008AU  21225.13398287  .00001382  00000-0  54332-4 0  9997
2 41990  97.3201 291.6385 0005597 242.5038 117.5655 15.27328895249231
1 41990U 17008AU  21225.13398296  .00001342  00000-0  52842-4 0  9997
2 41990  97.3195 291.6372 0005638 236.0674 124.0030 15.27328937249236
1 41990U 17008AU  21225.65811115  .00001325  00000-0  52196-4 0  9997
2 41990  97.3195 292.1516 0005686 233.7743 126.2971 15.27330309249319
1 41990U 17008AU  21226.44430224  .00001240  00000-0  49020-4 0  9991
2 41990  97.3195 292.9231 0005770 230.3967 129.6763 15.27331999249431
